{
  "type": "FeatureCollection",
  "name": "mkad-ring",
  "crs": {
    "type": "name",
    "properties": {
      "name": "urn:ogc:def:crs:OGC:1.3:CRS84"
    }
  },
  "features": [
    {
      "type": "Feature",
      "properties": {
        "name": "Московская кольцевая автомобильная дорога",
        "geometryVersion": "2026-08-16",
        "osmRelationId": 2094222,
        "snapshotUrl": "https://download.geofabrik.de/russia/central-fed-district-260816.osm.pbf",
        "snapshotMd5": "c610ce76bb40778cd29e60b77d788e20",
        "snapshotSha256": "2aa0bd8db8118d16fa4f67cceb2ee08c771f84d91a679eef74f4e995393f83fc",
        "dataDate": "2026-08-16",
        "derivation": "Топологическая сборка: линии отношения соединены по общим идентификаторам узлов OSM, выбран внешний замкнутый контур. Угловые секторы, радиус от центра, сглаживание и интерполяция не применялись.",
        "builder": "scripts/geodata/build-mkad.mjs@1.0.0",
        "pointCount": 1041,
        "lengthMeters": 108386,
        "bbox": [37.368812, 55.571818, 37.843494, 55.911148],
        "geometrySha256": "aeaac009a445da1c258882a1ecc6833d7ea804cba589d5c79a52561f34e98972",
        "license": "ODbL-1.0",
        "attribution": "© OpenStreetMap contributors"
      },
      "geometry": {
        "type": "Polygon",
        "coordinates": [
          [
            [37.368812, 55.750289],
            [37.368855, 55.749855],
            [37.369001, 55.748521],
            [37.369413, 55.746448],
            [37.370143, 55.744255],
            [37.371215, 55.742022],
            [37.371222, 55.742008],
            [37.371268, 55.741911],
            [37.37156, 55.741305],
            [37.371714, 55.740984],
            [37.371885, 55.740652],
            [37.372933, 55.738614],
            [37.374444, 55.735636],
            [37.374596, 55.735355],
            [37.375708, 55.733199],
            [37.375905, 55.732809],
            [37.376125, 55.732373],
            [37.377129, 55.730396],
            [37.377725, 55.729247],
            [37.377939, 55.728832],
            [37.378139, 55.728447],
            [37.3783, 55.728146],
            [37.379069, 55.726567],
            [37.379231, 55.726262],
            [37.379617, 55.725537],
            [37.380279, 55.724253],
            [37.380479, 55.723857],
            [37.38054, 55.723736],
            [37.382037, 55.720822],
            [37.382789, 55.719341],
            [37.382869, 55.719185],
            [37.383882, 55.717219],
            [37.384493, 55.716015],
            [37.384985, 55.715037],
            [37.385477, 55.714061],
            [37.385853, 55.713357],
            [37.386323, 55.712556],
            [37.386609, 55.712102],
            [37.387083, 55.711444],
            [37.387604, 55.710786],
            [37.388233, 55.710072],
            [37.388659, 55.709625],
            [37.389615, 55.708722],
            [37.390171, 55.708266],
            [37.390565, 55.707956],
            [37.392143, 55.706814],
            [37.392652, 55.706427],
            [37.392708, 55.706385],
            [37.394176, 55.705308],
            [37.395256, 55.704506],
            [37.39631, 55.703729],
            [37.398333, 55.702221],
            [37.398526, 55.702076],
            [37.399267, 55.701515],
            [37.400063, 55.700941],
            [37.401299, 55.700027],
            [37.401509, 55.699864],
            [37.40244, 55.699179],
            [37.402743, 55.698947],
            [37.40454, 55.697541],
            [37.4073, 55.695551],
            [37.409055, 55.694287],
            [37.409868, 55.693659],
            [37.410821, 55.692864],
            [37.411671, 55.692041],
            [37.412208, 55.69144],
            [37.412489, 55.69111],
            [37.413284, 55.690068],
            [37.413499, 55.689754],
            [37.413928, 55.689037],
            [37.414325, 55.688291],
            [37.414626, 55.687612],
            [37.414784, 55.687176],
            [37.414854, 55.686982],
            [37.414978, 55.686603],
            [37.415046, 55.686396],
            [37.41523, 55.685849],
            [37.415278, 55.685705],
            [37.415359, 55.685463],
            [37.415487, 55.685081],
            [37.41578, 55.68439],
            [37.415931, 55.684059],
            [37.416128, 55.683664],
            [37.416344, 55.683281],
            [37.416601, 55.682852],
            [37.416872, 55.682436],
            [37.417323, 55.681815],
            [37.418222, 55.680608],
            [37.41933, 55.679126],
            [37.420379, 55.677723],
            [37.420499, 55.677563],
            [37.421562, 55.676142],
            [37.422553, 55.67482],
            [37.422668, 55.674668],
            [37.423444, 55.673633],
            [37.425504, 55.670885],
            [37.426683, 55.669322],
            [37.426751, 55.669232],
            [37.427546, 55.668149],
            [37.428162, 55.667325],
            [37.428706, 55.666583],
            [37.429014, 55.666188],
            [37.429649, 55.665344],
            [37.429926, 55.664987],
            [37.430216, 55.664622],
            [37.430688, 55.664033],
            [37.430964, 55.663698],
            [37.43216, 55.662389],
            [37.432795, 55.661741],
            [37.433964, 55.660542],
            [37.434362, 55.660137],
            [37.435262, 55.659317],
            [37.436086, 55.658586],
            [37.436576, 55.658167],
            [37.438637, 55.656402],
            [37.440849, 55.654507],
            [37.441319, 55.654115],
            [37.441783, 55.653747],
            [37.441944, 55.653617],
            [37.4436, 55.652355],
            [37.443803, 55.652189],
            [37.444003, 55.652018],
            [37.44474, 55.651389],
            [37.445362, 55.650856],
            [37.451459, 55.645647],
            [37.452392, 55.64485],
            [37.454021, 55.643459],
            [37.456568, 55.641286],
            [37.456781, 55.641104],
            [37.459037, 55.639181],
            [37.459823, 55.638511],
            [37.459841, 55.638496],
            [37.461251, 55.637278],
            [37.462641, 55.636102],
            [37.462689, 55.636061],
            [37.462823, 55.635946],
            [37.462987, 55.635806],
            [37.46409, 55.634862],
            [37.465666, 55.633505],
            [37.466111, 55.633123],
            [37.466913, 55.632433],
            [37.46756, 55.631865],
            [37.468164, 55.631349],
            [37.468488, 55.63108],
            [37.469626, 55.630121],
            [37.469899, 55.629891],
            [37.471373, 55.628602],
            [37.471792, 55.628243],
            [37.472823, 55.627357],
            [37.474062, 55.626316],
            [37.4744, 55.626033],
            [37.474489, 55.625958],
            [37.474921, 55.625599],
            [37.478565, 55.622462],
            [37.47926, 55.621864],
            [37.479414, 55.621731],
            [37.48024, 55.62102],
            [37.48032, 55.620952],
            [37.482088, 55.619441],
            [37.484684, 55.617223],
            [37.487815, 55.61453],
            [37.488666, 55.6138],
            [37.488983, 55.613528],
            [37.48918, 55.613359],
            [37.491321, 55.611522],
            [37.492279, 55.610699],
            [37.495931, 55.607565],
            [37.497745, 55.606009],
            [37.499335, 55.604682],
            [37.499892, 55.6042],
            [37.50212, 55.602274],
            [37.502841, 55.601651],
            [37.503405, 55.601169],
            [37.503661, 55.600941],
            [37.504547, 55.600193],
            [37.505215, 55.599679],
            [37.505894, 55.599197],
            [37.505994, 55.599126],
            [37.506591, 55.59874],
            [37.507017, 55.598467],
            [37.507222, 55.598335],
            [37.508094, 55.597844],
            [37.508131, 55.597823],
            [37.508794, 55.597451],
            [37.509479, 55.597093],
            [37.510311, 55.59669],
            [37.511091, 55.596327],
            [37.511565, 55.596118],
            [37.512062, 55.595913],
            [37.513344, 55.595423],
            [37.513949, 55.595221],
            [37.514373, 55.595079],
            [37.51559, 55.594692],
            [37.516733, 55.594354],
            [37.517305, 55.594199],
            [37.517948, 55.594041],
            [37.518923, 55.593808],
            [37.522138, 55.593038],
            [37.523665, 55.592673],
            [37.525128, 55.592323],
            [37.528413, 55.591536],
            [37.528858, 55.59143],
            [37.529656, 55.591239],
            [37.531015, 55.590913],
            [37.534604, 55.590054],
            [37.544602, 55.58766],
            [37.544686, 55.58764],
            [37.545444, 55.587458],
            [37.545605, 55.58742],
            [37.546782, 55.587138],
            [37.549471, 55.586494],
            [37.555957, 55.584947],
            [37.564602, 55.582871],
            [37.567426, 55.582195],
            [37.569159, 55.58178],
            [37.571542, 55.581209],
            [37.573574, 55.580722],
            [37.57552, 55.580256],
            [37.579357, 55.579337],
            [37.581581, 55.578804],
            [37.586788, 55.577557],
            [37.587944, 55.57728],
            [37.588546, 55.577138],
            [37.589177, 55.576997],
            [37.589773, 55.576871],
            [37.590408, 55.576756],
            [37.591089, 55.576639],
            [37.592079, 55.576471],
            [37.592272, 55.576439],
            [37.592916, 55.576335],
            [37.593519, 55.576245],
            [37.594126, 55.576161],
            [37.594737, 55.57609],
            [37.595388, 55.576023],
            [37.596012, 55.575968],
            [37.596551, 55.575926],
            [37.597096, 55.575888],
            [37.598296, 55.575815],
            [37.599496, 55.575744],
            [37.599656, 55.575735],
            [37.601557, 55.575624],
            [37.601818, 55.575609],
            [37.606708, 55.575324],
            [37.608251, 55.575236],
            [37.60861, 55.575215],
            [37.610411, 55.575109],
            [37.611314, 55.575056],
            [37.612322, 55.574996],
            [37.612599, 55.57498],
            [37.613663, 55.574918],
            [37.615377, 55.574825],
            [37.616634, 55.574751],
            [37.618613, 55.574634],
            [37.619873, 55.574559],
            [37.622284, 55.574414],
            [37.626972, 55.574139],
            [37.627689, 55.574097],
            [37.63241, 55.57382],
            [37.634752, 55.573682],
            [37.636292, 55.573592],
            [37.638649, 55.573463],
            [37.640149, 55.573365],
            [37.642297, 55.573239],
            [37.645153, 55.573072],
            [37.645771, 55.573035],
            [37.647669, 55.572924],
            [37.649205, 55.572834],
            [37.65254, 55.572638],
            [37.653064, 55.572607],
            [37.65412, 55.572544],
            [37.655068, 55.572487],
            [37.657724, 55.572329],
            [37.663302, 55.571996],
            [37.663935, 55.571959],
            [37.664618, 55.571927],
            [37.665301, 55.571891],
            [37.665933, 55.571867],
            [37.666604, 55.571842],
            [37.667273, 55.571828],
            [37.667952, 55.571818],
            [37.668635, 55.571821],
            [37.669312, 55.571836],
            [37.669997, 55.571856],
            [37.670113, 55.571861],
            [37.670672, 55.571883],
            [37.671348, 55.571923],
            [37.672017, 55.571973],
            [37.672987, 55.57207],
            [37.673863, 55.572158],
            [37.674698, 55.572248],
            [37.675363, 55.572336],
            [37.676012, 55.572423],
            [37.676674, 55.572525],
            [37.677953, 55.572746],
            [37.678593, 55.572864],
            [37.67924, 55.573001],
            [37.679876, 55.573143],
            [37.680494, 55.573303],
            [37.681083, 55.573457],
            [37.68166, 55.57361],
            [37.682185, 55.573755],
            [37.682762, 55.573925],
            [37.683326, 55.574101],
            [37.683874, 55.574279],
            [37.684412, 55.574459],
            [37.684895, 55.574629],
            [37.687102, 55.575429],
            [37.687722, 55.575653],
            [37.688888, 55.576089],
            [37.693228, 55.577712],
            [37.694651, 55.578244],
            [37.698194, 55.579569],
            [37.69887, 55.57982],
            [37.699574, 55.580082],
            [37.701089, 55.580647],
            [37.70185, 55.58093],
            [37.70312, 55.581403],
            [37.704871, 55.582056],
            [37.707067, 55.582877],
            [37.707762, 55.583132],
            [37.708638, 55.583458],
            [37.710412, 55.584118],
            [37.711466, 55.584511],
            [37.713316, 55.5852],
            [37.714989, 55.585816],
            [37.715673, 55.586073],
            [37.718786, 55.587242],
            [37.719948, 55.587687],
            [37.720258, 55.587817],
            [37.721031, 55.588146],
            [37.722997, 55.588954],
            [37.724553, 55.58962],
            [37.725843, 55.590171],
            [37.73117, 55.5924],
            [37.737304, 55.594972],
            [37.738633, 55.595521],
            [37.738994, 55.59567],
            [37.740001, 55.596092],
            [37.742927, 55.597319],
            [37.746762, 55.598927],
            [37.747682, 55.599318],
            [37.748897, 55.59981],
            [37.750093, 55.600319],
            [37.751117, 55.600758],
            [37.752039, 55.601153],
            [37.753128, 55.601648],
            [37.754037, 55.602089],
            [37.755162, 55.602669],
            [37.755857, 55.603045],
            [37.756092, 55.603172],
            [37.757168, 55.603763],
            [37.761758, 55.6063],
            [37.762957, 55.606975],
            [37.766282, 55.608803],
            [37.770938, 55.611364],
            [37.773138, 55.61258],
            [37.775237, 55.613725],
            [37.77903, 55.61583],
            [37.77953, 55.616105],
            [37.779796, 55.616255],
            [37.780223, 55.616495],
            [37.781296, 55.617096],
            [37.781586, 55.617252],
            [37.781785, 55.617358],
            [37.782116, 55.617535],
            [37.782275, 55.617623],
            [37.785581, 55.619406],
            [37.786523, 55.619874],
            [37.788, 55.620559],
            [37.788626, 55.620841],
            [37.789802, 55.6214],
            [37.790821, 55.621935],
            [37.791688, 55.622422],
            [37.795321, 55.624405],
            [37.796272, 55.624978],
            [37.796865, 55.625351],
            [37.797515, 55.625775],
            [37.798103, 55.626194],
            [37.798403, 55.6264],
            [37.798827, 55.6267],
            [37.799291, 55.627012],
            [37.799445, 55.627115],
            [37.80019, 55.627625],
            [37.800332, 55.627723],
            [37.804686, 55.63055],
            [37.805551, 55.631112],
            [37.806603, 55.631796],
            [37.807061, 55.632095],
            [37.807406, 55.63232],
            [37.80779, 55.632572],
            [37.817032, 55.638614],
            [37.817717, 55.639077],
            [37.819626, 55.640324],
            [37.81977, 55.640418],
            [37.820144, 55.640662],
            [37.823283, 55.642712],
            [37.826929, 55.645096],
            [37.827269, 55.645319],
            [37.827548, 55.6455],
            [37.827989, 55.645788],
            [37.829443, 55.646736],
            [37.830486, 55.647416],
            [37.832122, 55.648511],
            [37.832797, 55.648969],
            [37.83285, 55.649004],
            [37.833063, 55.649164],
            [37.834644, 55.650367],
            [37.835603, 55.651229],
            [37.836174, 55.651808],
            [37.836802, 55.652525],
            [37.837549, 55.653517],
            [37.837921, 55.654074],
            [37.838054, 55.654276],
            [37.838429, 55.654932],
            [37.838717, 55.655508],
            [37.838935, 55.655945],
            [37.839191, 55.656561],
            [37.839389, 55.657141],
            [37.839474, 55.657485],
            [37.839585, 55.657945],
            [37.839618, 55.658115],
            [37.83977, 55.658889],
            [37.839864, 55.659736],
            [37.839874, 55.65993],
            [37.839904, 55.660547],
            [37.839905, 55.661313],
            [37.839809, 55.662202],
            [37.839673, 55.662973],
            [37.839474, 55.663744],
            [37.839112, 55.664798],
            [37.837133, 55.670177],
            [37.835781, 55.67389],
            [37.835056, 55.675882],
            [37.83392, 55.679002],
            [37.832372, 55.682743],
            [37.83203, 55.683623],
            [37.831773, 55.684319],
            [37.831523, 55.684998],
            [37.830627, 55.687373],
            [37.830431, 55.687942],
            [37.830106, 55.689078],
            [37.829856, 55.690123],
            [37.829722, 55.690986],
            [37.829569, 55.691997],
            [37.829517, 55.692881],
            [37.829528, 55.693737],
            [37.82959, 55.694758],
            [37.829706, 55.69569],
            [37.829794, 55.696221],
            [37.829877, 55.696656],
            [37.829987, 55.697043],
            [37.830094, 55.697423],
            [37.830112, 55.697484],
            [37.830272, 55.698044],
            [37.830423, 55.698484],
            [37.830543, 55.698832],
            [37.830608, 55.698996],
            [37.830848, 55.6996],
            [37.831153, 55.700254],
            [37.831216, 55.700389],
            [37.831591, 55.701146],
            [37.833248, 55.704218],
            [37.833588, 55.70485],
            [37.833856, 55.705354],
            [37.834774, 55.707086],
            [37.835059, 55.707623],
            [37.835376, 55.708228],
            [37.836012, 55.709414],
            [37.836384, 55.710111],
            [37.836644, 55.710605],
            [37.836903, 55.711101],
            [37.837644, 55.712514],
            [37.838028, 55.71328],
            [37.838321, 55.714019],
            [37.838558, 55.714731],
            [37.838741, 55.715513],
            [37.83891, 55.716556],
            [37.839358, 55.720234],
            [37.839539, 55.721756],
            [37.839693, 55.722979],
            [37.840383, 55.728728],
            [37.840488, 55.729605],
            [37.840751, 55.731793],
            [37.84077, 55.73195],
            [37.840852, 55.732651],
            [37.840875, 55.732855],
            [37.841067, 55.734409],
            [37.841121, 55.734833],
            [37.841356, 55.736673],
            [37.84169, 55.739376],
            [37.841827, 55.74048],
            [37.841889, 55.741049],
            [37.842008, 55.742133],
            [37.842097, 55.743606],
            [37.842106, 55.743861],
            [37.842129, 55.744484],
            [37.842157, 55.745251],
            [37.842184, 55.745838],
            [37.842255, 55.747427],
            [37.842258, 55.747496],
            [37.842303, 55.748695],
            [37.842338, 55.749436],
            [37.842357, 55.749927],
            [37.84242, 55.750713],
            [37.842506, 55.75213],
            [37.842532, 55.752558],
            [37.842592, 55.753548],
            [37.842604, 55.753842],
            [37.842623, 55.754506],
            [37.842633, 55.754806],
            [37.842703, 55.756017],
            [37.842712, 55.756167],
            [37.84283, 55.757364],
            [37.842838, 55.757563],
            [37.842841, 55.757638],
            [37.842885, 55.758719],
            [37.842893, 55.75891],
            [37.842901, 55.759329],
            [37.842926, 55.75977],
            [37.842957, 55.760318],
            [37.842995, 55.760967],
            [37.843069, 55.762325],
            [37.843098, 55.762879],
            [37.843236, 55.765718],
            [37.843261, 55.766689],
            [37.843322, 55.767378],
            [37.84335, 55.767894],
            [37.843356, 55.768017],
            [37.843387, 55.768496],
            [37.843493, 55.770122],
            [37.843494, 55.770491],
            [37.843494, 55.771452],
            [37.84334, 55.77292],
            [37.843209, 55.774142],
            [37.843187, 55.774339],
            [37.842943, 55.776493],
            [37.842937, 55.776547],
            [37.842885, 55.776956],
            [37.842843, 55.777379],
            [37.842836, 55.777447],
            [37.842543, 55.78006],
            [37.842482, 55.780767],
            [37.842456, 55.781069],
            [37.842238, 55.783363],
            [37.842015, 55.785704],
            [37.841568, 55.790036],
            [37.841432, 55.791041],
            [37.841138, 55.793449],
            [37.841094, 55.793805],
            [37.840676, 55.79723],
            [37.840462, 55.798985],
            [37.840295, 55.800359],
            [37.840078, 55.802505],
            [37.839965, 55.803348],
            [37.839919, 55.803692],
            [37.839889, 55.804002],
            [37.839854, 55.804362],
            [37.839837, 55.804617],
            [37.839825, 55.80481],
            [37.839818, 55.804915],
            [37.839812, 55.805416],
            [37.839815, 55.805723],
            [37.839818, 55.806108],
            [37.839795, 55.806835],
            [37.839701, 55.807959],
            [37.839473, 55.810054],
            [37.839446, 55.810323],
            [37.839423, 55.810515],
            [37.839398, 55.810743],
            [37.839349, 55.811188],
            [37.839088, 55.813607],
            [37.839019, 55.81414],
            [37.838881, 55.815197],
            [37.838701, 55.816185],
            [37.838561, 55.816938],
            [37.838509, 55.817251],
            [37.838333, 55.81831],
            [37.838309, 55.81846],
            [37.838249, 55.818797],
            [37.838029, 55.819721],
            [37.837934, 55.820097],
            [37.83776, 55.820523],
            [37.837403, 55.821371],
            [37.837098, 55.821995],
            [37.83674, 55.822589],
            [37.836316, 55.823224],
            [37.835766, 55.823984],
            [37.835304, 55.824551],
            [37.834837, 55.82507],
            [37.834638, 55.82528],
            [37.834373, 55.825558],
            [37.833954, 55.825975],
            [37.833267, 55.826579],
            [37.832723, 55.827035],
            [37.832181, 55.827467],
            [37.831932, 55.827661],
            [37.831234, 55.828148],
            [37.830351, 55.828721],
            [37.829979, 55.828954],
            [37.829236, 55.829398],
            [37.828909, 55.829571],
            [37.828264, 55.829912],
            [37.827904, 55.830102],
            [37.826795, 55.830685],
            [37.826375, 55.830905],
            [37.825683, 55.831268],
            [37.823822, 55.83224],
            [37.815677, 55.836437],
            [37.812027, 55.838317],
            [37.800235, 55.844392],
            [37.795835, 55.846658],
            [37.788434, 55.850469],
            [37.786484, 55.851474],
            [37.776639, 55.856544],
            [37.765864, 55.862094],
            [37.764846, 55.862615],
            [37.753032, 55.868698],
            [37.751133, 55.869675],
            [37.741203, 55.874786],
            [37.738004, 55.87643],
            [37.734741, 55.878107],
            [37.733911, 55.878533],
            [37.733621, 55.878686],
            [37.733124, 55.878944],
            [37.732999, 55.879009],
            [37.731852, 55.879604],
            [37.730955, 55.880029],
            [37.730201, 55.880365],
            [37.72952, 55.880664],
            [37.72857, 55.881109],
            [37.72793, 55.881411],
            [37.727173, 55.881787],
            [37.72669, 55.88204],
            [37.726563, 55.882102],
            [37.72544, 55.882674],
            [37.72532, 55.882735],
            [37.723677, 55.883587],
            [37.721605, 55.884652],
            [37.720144, 55.885381],
            [37.718822, 55.886067],
            [37.717342, 55.886833],
            [37.713795, 55.888706],
            [37.713209, 55.889011],
            [37.712094, 55.889545],
            [37.71121, 55.889948],
            [37.710544, 55.890253],
            [37.71025, 55.890388],
            [37.710003, 55.890501],
            [37.708552, 55.89114],
            [37.707845, 55.891443],
            [37.706971, 55.891819],
            [37.70603, 55.892184],
            [37.70501, 55.892546],
            [37.704045, 55.892854],
            [37.70333, 55.893061],
            [37.702716, 55.893239],
            [37.701444, 55.89357],
            [37.700169, 55.893852],
            [37.699473, 55.893979],
            [37.698741, 55.894118],
            [37.697332, 55.894334],
            [37.695723, 55.894523],
            [37.694309, 55.894645],
            [37.693203, 55.894713],
            [37.692735, 55.894743],
            [37.692463, 55.894754],
            [37.690507, 55.894834],
            [37.687105, 55.894924],
            [37.686767, 55.894933],
            [37.685617, 55.894966],
            [37.684954, 55.894984],
            [37.684762, 55.89499],
            [37.683175, 55.895036],
            [37.680782, 55.895106],
            [37.680038, 55.895124],
            [37.677888, 55.895174],
            [37.676734, 55.895201],
            [37.675083, 55.895244],
            [37.673832, 55.895275],
            [37.672391, 55.895316],
            [37.672238, 55.895322],
            [37.669382, 55.895425],
            [37.668415, 55.89546],
            [37.667806, 55.895482],
            [37.664507, 55.895631],
            [37.662863, 55.895718],
            [37.661071, 55.895833],
            [37.659962, 55.895904],
            [37.657575, 55.896076],
            [37.656886, 55.896133],
            [37.656043, 55.896202],
            [37.654077, 55.896363],
            [37.651739, 55.896582],
            [37.649181, 55.896839],
            [37.646595, 55.897113],
            [37.64423, 55.897391],
            [37.641869, 55.89767],
            [37.641151, 55.897771],
            [37.637862, 55.898254],
            [37.635641, 55.898585],
            [37.633431, 55.89894],
            [37.631348, 55.899318],
            [37.629827, 55.899594],
            [37.62906, 55.899733],
            [37.628842, 55.899775],
            [37.628016, 55.89993],
            [37.626495, 55.900215],
            [37.62352, 55.900833],
            [37.620504, 55.901478],
            [37.617324, 55.90221],
            [37.614505, 55.902886],
            [37.614363, 55.902921],
            [37.61168, 55.903581],
            [37.608477, 55.90447],
            [37.607991, 55.904605],
            [37.607241, 55.904813],
            [37.59859, 55.907216],
            [37.598089, 55.907355],
            [37.59732, 55.907569],
            [37.596794, 55.907716],
            [37.594442, 55.908375],
            [37.594133, 55.908462],
            [37.591679, 55.909149],
            [37.59106, 55.909319],
            [37.590155, 55.909568],
            [37.58914, 55.909811],
            [37.587785, 55.910103],
            [37.587117, 55.910234],
            [37.586672, 55.910312],
            [37.585622, 55.910483],
            [37.584914, 55.91059],
            [37.584357, 55.91066],
            [37.583678, 55.910746],
            [37.582436, 55.910877],
            [37.582174, 55.910909],
            [37.58096, 55.911003],
            [37.580008, 55.911061],
            [37.579466, 55.911094],
            [37.578236, 55.911138],
            [37.577167, 55.911148],
            [37.576136, 55.911135],
            [37.576093, 55.911135],
            [37.575709, 55.911132],
            [37.574222, 55.911084],
            [37.572882, 55.911003],
            [37.571444, 55.910876],
            [37.569134, 55.910633],
            [37.56896, 55.910615],
            [37.566503, 55.910356],
            [37.562158, 55.909895],
            [37.553262, 55.90895],
            [37.552756, 55.908899],
            [37.550754, 55.908686],
            [37.544015, 55.907944],
            [37.543196, 55.907855],
            [37.539823, 55.907506],
            [37.539753, 55.907499],
            [37.538334, 55.907343],
            [37.536014, 55.907097],
            [37.534838, 55.906951],
            [37.533888, 55.906817],
            [37.532965, 55.906667],
            [37.532157, 55.90653],
            [37.531198, 55.906341],
            [37.529954, 55.90608],
            [37.529021, 55.905865],
            [37.528099, 55.905618],
            [37.526653, 55.905189],
            [37.525587, 55.904849],
            [37.524414, 55.904433],
            [37.523279, 55.903985],
            [37.52139, 55.903205],
            [37.520751, 55.902905],
            [37.519988, 55.902566],
            [37.516444, 55.900994],
            [37.508175, 55.897362],
            [37.505764, 55.896303],
            [37.505605, 55.896233],
            [37.503393, 55.895252],
            [37.500814, 55.89413],
            [37.497, 55.892448],
            [37.49648, 55.892217],
            [37.496086, 55.892042],
            [37.495533, 55.891801],
            [37.494449, 55.891329],
            [37.493786, 55.89104],
            [37.492034, 55.890254],
            [37.49143, 55.88999],
            [37.490536, 55.889626],
            [37.489527, 55.889239],
            [37.488637, 55.888918],
            [37.487694, 55.888609],
            [37.487397, 55.888516],
            [37.486792, 55.888326],
            [37.486268, 55.888183],
            [37.485721, 55.888033],
            [37.484191, 55.887632],
            [37.48351, 55.887456],
            [37.482056, 55.887084],
            [37.481541, 55.886955],
            [37.479598, 55.886471],
            [37.478632, 55.886232],
            [37.47448, 55.885193],
            [37.473197, 55.884865],
            [37.471894, 55.884537],
            [37.471055, 55.884332],
            [37.47026, 55.884132],
            [37.46947, 55.883939],
            [37.468564, 55.883744],
            [37.467764, 55.883595],
            [37.466949, 55.883453],
            [37.465983, 55.883314],
            [37.465446, 55.883241],
            [37.464484, 55.883138],
            [37.463412, 55.883039],
            [37.462248, 55.882966],
            [37.460938, 55.882912],
            [37.459678, 55.882864],
            [37.455721, 55.882829],
            [37.454635, 55.882816],
            [37.453757, 55.882781],
            [37.452528, 55.88272],
            [37.451786, 55.882683],
            [37.451026, 55.882635],
            [37.450154, 55.882561],
            [37.449331, 55.882481],
            [37.44824, 55.882337],
            [37.447168, 55.882163],
            [37.446295, 55.882],
            [37.446092, 55.88196],
            [37.444797, 55.881703],
            [37.444225, 55.881584],
            [37.443697, 55.881447],
            [37.442649, 55.881185],
            [37.441613, 55.880881],
            [37.440138, 55.880399],
            [37.438718, 55.879952],
            [37.438156, 55.879776],
            [37.43775, 55.87965],
            [37.437696, 55.879635],
            [37.436694, 55.879318],
            [37.434102, 55.87851],
            [37.433607, 55.878355],
            [37.433575, 55.878345],
            [37.432734, 55.878087],
            [37.432208, 55.877924],
            [37.430229, 55.877297],
            [37.429572, 55.87709],
            [37.428174, 55.876652],
            [37.426421, 55.876105],
            [37.42473, 55.875576],
            [37.42342, 55.875167],
            [37.422788, 55.874966],
            [37.420125, 55.874127],
            [37.418927, 55.873729],
            [37.417594, 55.873275],
            [37.416359, 55.872831],
            [37.415047, 55.872317],
            [37.413669, 55.87174],
            [37.412497, 55.871225],
            [37.411658, 55.870833],
            [37.410656, 55.87034],
            [37.409751, 55.869871],
            [37.408488, 55.86917],
            [37.407317, 55.868463],
            [37.405791, 55.867483],
            [37.405325, 55.867159],
            [37.40468, 55.866692],
            [37.404455, 55.866513],
            [37.40359, 55.865817],
            [37.402193, 55.86464],
            [37.40168, 55.86417],
            [37.401219, 55.86372],
            [37.400501, 55.862974],
            [37.400285, 55.862745],
            [37.400242, 55.862697],
            [37.399465, 55.861806],
            [37.399099, 55.861358],
            [37.398737, 55.860915],
            [37.398413, 55.860503],
            [37.3981, 55.860045],
            [37.397737, 55.859453],
            [37.397528, 55.859118],
            [37.396726, 55.857697],
            [37.396178, 55.856676],
            [37.395207, 55.85487],
            [37.394866, 55.85425],
            [37.393862, 55.852359],
            [37.39303, 55.850792],
            [37.392635, 55.850052],
            [37.392402, 55.849623],
            [37.392188, 55.849194],
            [37.392034, 55.848825],
            [37.391821, 55.848217],
            [37.391807, 55.848171],
            [37.391762, 55.848004],
            [37.391726, 55.847872],
            [37.391656, 55.847388],
            [37.391626, 55.846976],
            [37.391632, 55.84649],
            [37.391666, 55.846166],
            [37.391734, 55.845771],
            [37.391807, 55.845476],
            [37.391917, 55.845112],
            [37.392075, 55.844709],
            [37.392251, 55.844308],
            [37.392511, 55.843839],
            [37.392802, 55.843427],
            [37.393099, 55.84303],
            [37.39322, 55.842865],
            [37.393618, 55.842303],
            [37.393708, 55.842163],
            [37.39401, 55.841693],
            [37.394276, 55.841209],
            [37.394602, 55.840615],
            [37.394927, 55.839944],
            [37.395207, 55.839246],
            [37.395341, 55.838867],
            [37.39546, 55.838495],
            [37.395569, 55.838134],
            [37.395628, 55.837772],
            [37.395748, 55.836903],
            [37.395777, 55.83648],
            [37.395781, 55.836087],
            [37.395782, 55.835941],
            [37.395782, 55.835785],
            [37.395783, 55.835445],
            [37.395712, 55.834788],
            [37.395637, 55.834244],
            [37.395628, 55.834178],
            [37.395624, 55.834072],
            [37.39555, 55.8336],
            [37.395471, 55.833206],
            [37.395369, 55.832833],
            [37.395281, 55.832571],
            [37.395208, 55.832329],
            [37.395191, 55.832266],
            [37.394749, 55.830887],
            [37.394627, 55.830504],
            [37.3946, 55.830409],
            [37.394576, 55.830323],
            [37.393883, 55.828176],
            [37.393756, 55.827817],
            [37.393642, 55.827426],
            [37.393555, 55.82702],
            [37.393428, 55.826245],
            [37.393315, 55.825618],
            [37.39323, 55.8251],
            [37.393093, 55.824528],
            [37.392924, 55.823903],
            [37.392866, 55.823687],
            [37.392221, 55.821667],
            [37.39186, 55.820503],
            [37.39153, 55.819458],
            [37.391479, 55.819294],
            [37.391335, 55.818839],
            [37.390923, 55.817535],
            [37.39049, 55.816162],
            [37.390064, 55.814813],
            [37.389885, 55.814251],
            [37.389777, 55.81391],
            [37.389752, 55.81383],
            [37.389295, 55.812395],
            [37.388948, 55.811303],
            [37.388798, 55.81083],
            [37.388746, 55.810666],
            [37.388549, 55.810047],
            [37.388372, 55.809489],
            [37.388199, 55.80893],
            [37.38801, 55.808376],
            [37.387909, 55.80808],
            [37.387827, 55.807869],
            [37.3877, 55.807565],
            [37.387627, 55.807372],
            [37.387499, 55.807061],
            [37.387228, 55.806482],
            [37.387158, 55.806341],
            [37.387011, 55.806055],
            [37.386676, 55.805449],
            [37.386582, 55.805279],
            [37.386492, 55.805133],
            [37.385805, 55.804025],
            [37.385789, 55.803998],
            [37.384829, 55.80266],
            [37.384534, 55.802271],
            [37.3843, 55.801963],
            [37.384105, 55.801742],
            [37.383653, 55.80123],
            [37.383133, 55.800693],
            [37.378742, 55.796125],
            [37.378309, 55.795665],
            [37.377497, 55.794818],
            [37.376969, 55.794284],
            [37.375352, 55.792591],
            [37.374946, 55.792165],
            [37.373656, 55.790849],
            [37.373059, 55.790214],
            [37.372998, 55.790142],
            [37.372308, 55.78935],
            [37.372093, 55.789096],
            [37.371828, 55.788707],
            [37.37131, 55.787897],
            [37.371064, 55.787456],
            [37.370781, 55.786876],
            [37.370591, 55.786463],
            [37.370474, 55.786208],
            [37.370279, 55.785709],
            [37.370092, 55.785175],
            [37.369994, 55.784806],
            [37.369965, 55.7847],
            [37.369864, 55.78421],
            [37.369732, 55.783475],
            [37.369668, 55.782664],
            [37.369598, 55.780981],
            [37.369561, 55.779308],
            [37.36955, 55.778842],
            [37.369526, 55.777831],
            [37.369523, 55.777709],
            [37.369502, 55.776798],
            [37.369448, 55.774754],
            [37.369419, 55.773483],
            [37.369357, 55.771942],
            [37.369331, 55.770758],
            [37.369312, 55.769921],
            [37.369235, 55.768167],
            [37.369218, 55.767612],
            [37.369125, 55.765692],
            [37.369117, 55.765524],
            [37.369116, 55.765504],
            [37.369104, 55.764684],
            [37.369082, 55.763294],
            [37.369066, 55.761875],
            [37.36906, 55.761154],
            [37.369035, 55.758845],
            [37.369008, 55.757857],
            [37.368993, 55.757278],
            [37.36888, 55.75376],
            [37.368872, 55.753501],
            [37.368838, 55.752144],
            [37.368825, 55.751696],
            [37.368812, 55.750289]
          ]
        ]
      }
    }
  ]
}
